start=new Date('2022-07-19T00:00:00.000Z').valueOf();
sats=[{"ELEMENT_SET_NO":"999","APOAPSIS":"540.980","INCLINATION":"53.2166","MEAN_ELEMENT_THEORY":"SGP4","OBJECT_ID":"2022-052J","FILE":"3517175","ARG_OF_PERICENTER":"48.7950","COUNTRY_CODE":"US","MEAN_MOTION":"15.08836520","OBJECT_NAME":"STARLINK-3928","OBJECT_TYPE":"PAYLOAD","TLE_LINE1":"1 52606U 22052J   22199.91667824 -.00010966  00000-0 -67198-3 0  9994","TLE_LINE2":"2 52606  53.2166 128.6886 0001769  48.7950 136.1596 15.08836520  1302","MEAN_MOTION_DDOT":"0.0000000000000","MEAN_MOTION_DOT":"-0.00010966","EPOCH":"2022-07-18T22:00:00.999936","TIME_SYSTEM":"UTC","LAUNCH_DATE":"2022-05-14","ECCENTRICITY":"0.00017690","SEMIMAJOR_AXIS":"6917.891","CENTER_NAME":"EARTH","SITE":"AFETR","EPHEMERIS_TYPE":"0","PERIAPSIS":"538.532","RA_OF_ASC_NODE":"128.6886","PERIOD":"95.438","REV_AT_EPOCH":"130","DECAY_DATE":null,"RCS_SIZE":"LARGE","REF_FRAME":"TEME","GP_ID":"208409416","CLASSIFICATION_TYPE":"U","BSTAR":"-0.00067198000000","NORAD_CAT_ID":"52606","MEAN_ANOMALY":"136.1596"},{"PERIOD":"95.437","RA_OF_ASC_NODE":"133.7019","PERIAPSIS":"538.538","EPHEMERIS_TYPE":"0","SITE":"AFETR","CENTER_NAME":"EARTH","LAUNCH_DATE":"2022-05-14","SEMIMAJOR_AXIS":"6917.864","ECCENTRICITY":"0.00017210","EPOCH":"2022-07-18T22:00:00.999936","TIME_SYSTEM":"UTC","MEAN_MOTION_DOT":"-0.00012890","MEAN_MOTION_DDOT":"0.0000000000000","MEAN_ANOMALY":"311.7984","NORAD_CAT_ID":"52607","BSTAR":"-0.00079310000000","GP_ID":"208410010","CLASSIFICATION_TYPE":"U","REF_FRAME":"TEME","RCS_SIZE":"LARGE","DECAY_DATE":null,"REV_AT_EPOCH":"130","MEAN_MOTION":"15.08845464","COUNTRY_CODE":"US","FILE":"3517175","ARG_OF_PERICENTER":"65.5877","OBJECT_ID":"2022-052K","MEAN_ELEMENT_THEORY":"SGP4","INCLINATION":"53.2144","APOAPSIS":"540.919","ELEMENT_SET_NO":"999","TLE_LINE2":"2 52607  53.2144 133.7019 0001721  65.5877 311.7984 15.08845464  1306","TLE_LINE1":"1 52607U 22052K   22199.91667824 -.00012890  00000-0 -79310-3 0  9992","OBJECT_TYPE":"PAYLOAD","OBJECT_NAME":"STARLINK-3947"},{"APOAPSIS":"541.041","ELEMENT_SET_NO":"999","FILE":"3517175","ARG_OF_PERICENTER":"46.5352","MEAN_ELEMENT_THEORY":"SGP4","OBJECT_ID":"2022-052L","INCLINATION":"53.2165","COUNTRY_CODE":"US","MEAN_MOTION":"15.08831764","TLE_LINE1":"1 52608U 22052L   22199.91667824 -.00011470  00000-0 -70382-3 0  9996","OBJECT_NAME":"STARLINK-3979","OBJECT_TYPE":"PAYLOAD","TLE_LINE2":"2 52608  53.2165 128.6875 0001837  46.5352 178.3275 15.08831764  1306","EPOCH":"2022-07-18T22:00:00.999936","TIME_SYSTEM":"UTC","MEAN_MOTION_DOT":"-0.00011470","MEAN_MOTION_DDOT":"0.0000000000000","CENTER_NAME":"EARTH","SEMIMAJOR_AXIS":"6917.906","LAUNCH_DATE":"2022-05-14","ECCENTRICITY":"0.00018370","EPHEMERIS_TYPE":"0","SITE":"AFETR","PERIOD":"95.438","RA_OF_ASC_NODE":"128.6875","PERIAPSIS":"538.500","REF_FRAME":"TEME","RCS_SIZE":"LARGE","DECAY_DATE":null,"REV_AT_EPOCH":"130","BSTAR":"-0.00070382000000","CLASSIFICATION_TYPE":"U","GP_ID":"208409898","MEAN_ANOMALY":"178.3275","NORAD_CAT_ID":"52608"},{"NORAD_CAT_ID":"52609","MEAN_ANOMALY":"208.3284","GP_ID":"208410111","CLASSIFICATION_TYPE":"U","BSTAR":"-0.00087058000000","DECAY_DATE":null,"REV_AT_EPOCH":"130","REF_FRAME":"TEME","RCS_SIZE":"LARGE","PERIAPSIS":"538.467","RA_OF_ASC_NODE":"128.6879","PERIOD":"95.438","SITE":"AFETR","EPHEMERIS_TYPE":"0","LAUNCH_DATE":"2022-05-14","SEMIMAJOR_AXIS":"6917.895","ECCENTRICITY":"0.00018690","CENTER_NAME":"EARTH","MEAN_MOTION_DDOT":"0.0000000000000","MEAN_MOTION_DOT":"-0.00014115","TIME_SYSTEM":"UTC","EPOCH":"2022-07-18T22:00:00.999936","TLE_LINE2":"2 52609  53.2196 128.6879 0001869  51.2807 208.3284 15.08835078  1304","OBJECT_NAME":"STARLINK-3997","OBJECT_TYPE":"PAYLOAD","TLE_LINE1":"1 52609U 22052M   22199.91667824 -.00014115  00000-0 -87058-3 0  9994","MEAN_MOTION":"15.08835078","COUNTRY_CODE":"US","INCLINATION":"53.2196","MEAN_ELEMENT_THEORY":"SGP4","OBJECT_ID":"2022-052M","FILE":"3517175","ARG_OF_PERICENTER":"51.2807","ELEMENT_SET_NO":"999","APOAPSIS":"541.053"},{"REF_FRAME":"TEME","RCS_SIZE":"LARGE","DECAY_DATE":null,"REV_AT_EPOCH":"130","BSTAR":"-0.00091079000000","GP_ID":"208409787","CLASSIFICATION_TYPE":"U","MEAN_ANOMALY":"303.0725","NORAD_CAT_ID":"52610","EPOCH":"2022-07-18T22:00:00.999936","TIME_SYSTEM":"UTC","MEAN_MOTION_DOT":"-0.00014757","MEAN_MOTION_DDOT":"0.0000000000000","CENTER_NAME":"EARTH","LAUNCH_DATE":"2022-05-14","ECCENTRICITY":"0.00017200","SEMIMAJOR_AXIS":"6917.860","EPHEMERIS_TYPE":"0","SITE":"AFETR","PERIOD":"95.437","RA_OF_ASC_NODE":"133.7033","PERIAPSIS":"538.536","TLE_LINE1":"1 52610U 22052N   22199.91667824 -.00014757  00000-0 -91079-3 0  9996","OBJECT_NAME":"STARLINK-3998","OBJECT_TYPE":"PAYLOAD","TLE_LINE2":"2 52610  53.2147 133.7033 0001720  54.3044 303.0725 15.08846535  1307","APOAPSIS":"540.915","ELEMENT_SET_NO":"999","FILE":"3517175","ARG_OF_PERICENTER":"54.3044","MEAN_ELEMENT_THEORY":"SGP4","OBJECT_ID":"2022-052N","INCLINATION":"53.2147","COUNTRY_CODE":"US","MEAN_MOTION":"15.08846535"},{"TLE_LINE2":"2 52611  53.2151 133.7013 0001793  51.3042 346.1021 15.08870529  1303","OBJECT_NAME":"STARLINK-3980","OBJECT_TYPE":"PAYLOAD","TLE_LINE1":"1 52611U 22052P   22199.91667824 -.00059151  00000-0 -37260-2 0  9995","COUNTRY_CODE":"US","MEAN_MOTION":"15.08870529","APOAPSIS":"540.892","ELEMENT_SET_NO":"999","MEAN_ELEMENT_THEORY":"SGP4","OBJECT_ID":"2022-052P","FILE":"3517175","ARG_OF_PERICENTER":"51.3042","INCLINATION":"53.2151","BSTAR":"-0.00372600000000","GP_ID":"208409641","CLASSIFICATION_TYPE":"U","MEAN_ANOMALY":"346.1021","NORAD_CAT_ID":"52611","REF_FRAME":"TEME","RCS_SIZE":"LARGE","DECAY_DATE":null,"REV_AT_EPOCH":"130","SITE":"AFETR","EPHEMERIS_TYPE":"0","RA_OF_ASC_NODE":"133.7013","PERIOD":"95.436","PERIAPSIS":"538.412","MEAN_MOTION_DOT":"-0.00059151","EPOCH":"2022-07-18T22:00:00.999936","TIME_SYSTEM":"UTC","MEAN_MOTION_DDOT":"0.0000000000000","CENTER_NAME":"EARTH","LAUNCH_DATE":"2022-05-14","SEMIMAJOR_AXIS":"6917.787","ECCENTRICITY":"0.00017930"},{"GP_ID":"208409529","CLASSIFICATION_TYPE":"U","BSTAR":"-0.00000100430000","NORAD_CAT_ID":"52612","MEAN_ANOMALY":"271.8532","REV_AT_EPOCH":"130","DECAY_DATE":null,"RCS_SIZE":"LARGE","REF_FRAME":"TEME","SITE":"AFETR","EPHEMERIS_TYPE":"0","PERIAPSIS":"541.069","RA_OF_ASC_NODE":"128.5524","PERIOD":"95.489","MEAN_MOTION_DDOT":"0.0000000000000","MEAN_MOTION_DOT":"-0.00000301","EPOCH":"2022-07-18T22:00:00.999936","TIME_SYSTEM":"UTC","SEMIMAJOR_AXIS":"6920.390","LAUNCH_DATE":"2022-05-14","ECCENTRICITY":"0.00017140","CENTER_NAME":"EARTH","TLE_LINE2":"2 52612  53.2176 128.5524 0001714  47.9388 271.8532 15.08019411  1303","OBJECT_TYPE":"PAYLOAD","OBJECT_NAME":"STARLINK-4002","TLE_LINE1":"1 52612U 22052Q   22199.91667824 -.00000301  00000-0 -10043-5 0  9992","COUNTRY_CODE":"US","MEAN_MOTION":"15.08019411","ELEMENT_SET_NO":"999","APOAPSIS":"543.441","INCLINATION":"53.2176","MEAN_ELEMENT_THEORY":"SGP4","OBJECT_ID":"2022-052Q","ARG_OF_PERICENTER":"47.9388","FILE":"3517175"},{"REV_AT_EPOCH":"130","DECAY_DATE":null,"RCS_SIZE":"LARGE","REF_FRAME":"TEME","GP_ID":"208410188","CLASSIFICATION_TYPE":"U","BSTAR":"-0.03461400000000","NORAD_CAT_ID":"52613","MEAN_ANOMALY":"102.6242","MEAN_MOTION_DDOT":"0.0000000000000","MEAN_MOTION_DOT":"-0.01066651","TIME_SYSTEM":"UTC","EPOCH":"2022-07-18T22:00:00.999936","LAUNCH_DATE":"2022-05-14","ECCENTRICITY":"0.00013540","SEMIMAJOR_AXIS":"6841.428","CENTER_NAME":"EARTH","SITE":"AFETR","EPHEMERIS_TYPE":"0","PERIAPSIS":"462.367","RA_OF_ASC_NODE":"119.7983","PERIOD":"93.860","OBJECT_NAME":"STARLINK-3921","OBJECT_TYPE":"PAYLOAD","TLE_LINE1":"1 52613U 22052R   22199.91667824 -.01066651  00000-0 -34614-1 0  9990","TLE_LINE2":"2 52613  53.2177 119.7983 0001354  88.4665 102.6242 15.34202172  1300","ELEMENT_SET_NO":"999","APOAPSIS":"464.220","INCLINATION":"53.2177","MEAN_ELEMENT_THEORY":"SGP4","OBJECT_ID":"2022-052R","FILE":"3517175","ARG_OF_PERICENTER":"88.4665","COUNTRY_CODE":"US","MEAN_MOTION":"15.34202172"},{"MEAN_MOTION_DDOT":"0.0000000000000","MEAN_MOTION_DOT":"-0.01066408","TIME_SYSTEM":"UTC","EPOCH":"2022-07-18T22:00:00.999936","LAUNCH_DATE":"2022-05-14","SEMIMAJOR_AXIS":"6842.307","ECCENTRICITY":"0.00013990","CENTER_NAME":"EARTH","SITE":"AFETR","EPHEMERIS_TYPE":"0","PERIAPSIS":"463.214","RA_OF_ASC_NODE":"119.7890","PERIOD":"93.878","DECAY_DATE":null,"REV_AT_EPOCH":"130","RCS_SIZE":"LARGE","REF_FRAME":"TEME","CLASSIFICATION_TYPE":"U","GP_ID":"208409417","BSTAR":"-0.03493300000000","NORAD_CAT_ID":"52614","MEAN_ANOMALY":"112.4047","ELEMENT_SET_NO":"999","APOAPSIS":"465.129","INCLINATION":"53.2176","MEAN_ELEMENT_THEORY":"SGP4","OBJECT_ID":"2022-052S","ARG_OF_PERICENTER":"70.4534","FILE":"3517175","COUNTRY_CODE":"US","MEAN_MOTION":"15.33906757","OBJECT_NAME":"STARLINK-3982","OBJECT_TYPE":"PAYLOAD","TLE_LINE1":"1 52614U 22052S   22199.91667824 -.01066408  00000-0 -34933-1 0  9995","TLE_LINE2":"2 52614  53.2176 119.7890 0001399  70.4534 112.4047 15.33906757  1303"},{"DECAY_DATE":null,"REV_AT_EPOCH":"130","REF_FRAME":"TEME","RCS_SIZE":"LARGE","NORAD_CAT_ID":"52615","MEAN_ANOMALY":"353.9022","CLASSIFICATION_TYPE":"U","GP_ID":"208410011","BSTAR":"-0.00076629000000","LAUNCH_DATE":"2022-05-14","SEMIMAJOR_AXIS":"6917.851","ECCENTRICITY":"0.00017710","CENTER_NAME":"EARTH","MEAN_MOTION_DDOT":"0.0000000000000","EPOCH":"2022-07-18T22:00:00.999936","TIME_SYSTEM":"UTC","MEAN_MOTION_DOT":"-0.00012466","PERIAPSIS":"538.491","PERIOD":"95.437","RA_OF_ASC_NODE":"133.7005","EPHEMERIS_TYPE":"0","SITE":"AFETR","TLE_LINE1":"1 52615U 22052T   22199.91667824 -.00012466  00000-0 -76629-3 0  9990","OBJECT_TYPE":"PAYLOAD","OBJECT_NAME":"STARLINK-4011","TLE_LINE2":"2 52615  53.2146 133.7005 0001771  63.4728 353.9022 15.08849520  1307","INCLINATION":"53.2146","FILE":"3517175","ARG_OF_PERICENTER":"63.4728","MEAN_ELEMENT_THEORY":"SGP4","OBJECT_ID":"2022-052T","ELEMENT_SET_NO":"999","APOAPSIS":"540.941","MEAN_MOTION":"15.08849520","COUNTRY_CODE":"US"}];
